{"fetched_at":"2026-07-15T17:46:46.517Z","source":"https://celestrak.org/NORAD/elements/gp.php?GROUP=oneweb&FORMAT=JSON","constellation":"oneweb","records":[{"OBJECT_NAME":"ONEWEB-0528","OBJECT_ID":"2022-166B","EPOCH":"2026-07-15T04:26:37.337568","CLASSIFICATION_TYPE":"U","MEAN_MOTION":13.21825548,"ECCENTRICITY":0.0002185,"INCLINATION":87.9235,"RA_OF_ASC_NODE":238.4272,"ARG_OF_PERICENTER":102.431,"MEAN_ANOMALY":257.7068,"EPHEMERIS_TYPE":0,"NORAD_CAT_ID":54643,"ELEMENT_SET_NO":999,"REV_AT_EPOCH":17524,"BSTAR":-0.00011525,"MEAN_MOTION_DOT":-3.5e-7,"MEAN_MOTION_DDOT":0},{"OBJECT_NAME":"ONEWEB-0539","OBJECT_ID":"2022-166C","EPOCH":"2026-07-15T03:32:06.401184","CLASSIFICATION_TYPE":"U","MEAN_MOTION":13.21823715,"ECCENTRICITY":0.0001872,"INCLINATION":87.9239,"RA_OF_ASC_NODE":238.4083,"ARG_OF_PERICENTER":96.1136,"MEAN_ANOMALY":264.0211,"EPHEMERIS_TYPE":0,"NORAD_CAT_ID":54644,"ELEMENT_SET_NO":999,"REV_AT_EPOCH":17523,"BSTAR":0.00020585,"MEAN_MOTION_DOT":9.8e-7,"MEAN_MOTION_DDOT":0},{"OBJECT_NAME":"ONEWEB-0540","OBJECT_ID":"2022-166D","EPOCH":"2026-07-15T03:42:00.032256","CLASSIFICATION_TYPE":"U","MEAN_MOTION":13.21824474,"ECCENTRICITY":0.0002035,"INCLINATION":87.9234,"RA_OF_ASC_NODE":238.4357,"ARG_OF_PERICENTER":94.9561,"MEAN_ANOMALY":265.1805,"EPHEMERIS_TYPE":0,"NORAD_CAT_ID":54645,"ELEMENT_SET_NO":999,"REV_AT_EPOCH":17522,"BSTAR":0.00024433,"MEAN_MOTION_DOT":0.00000114,"MEAN_MOTION_DDOT":0},{"OBJECT_NAME":"ONEWEB-0542","OBJECT_ID":"2022-166E","EPOCH":"2026-07-15T03:46:39.727200","CLASSIFICATION_TYPE":"U","MEAN_MOTION":13.21825692,"ECCENTRICITY":0.0001755,"INCLINATION":87.9243,"RA_OF_ASC_NODE":238.4055,"ARG_OF_PERICENTER":95.1633,"MEAN_ANOMALY":264.9702,"EPHEMERIS_TYPE":0,"NORAD_CAT_ID":54646,"ELEMENT_SET_NO":999,"REV_AT_EPOCH":17523,"BSTAR":0.000042583,"MEAN_MOTION_DOT":3.1e-7,"MEAN_MOTION_DDOT":0},{"OBJECT_NAME":"ONEWEB-0545","OBJECT_ID":"2022-166F","EPOCH":"2026-07-15T02:55:47.699904","CLASSIFICATION_TYPE":"U","MEAN_MOTION":13.2182625,"ECCENTRICITY":0.0001534,"INCLINATION":87.9235,"RA_OF_ASC_NODE":238.4221,"ARG_OF_PERICENTER":89.4727,"MEAN_ANOMALY":270.6583,"EPHEMERIS_TYPE":0,"NORAD_CAT_ID":54647,"ELEMENT_SET_NO":999,"REV_AT_EPOCH":17519,"BSTAR":0.00019455,"MEAN_MOTION_DOT":9.3e-7,"MEAN_MOTION_DDOT":0},{"OBJECT_NAME":"ONEWEB-0580","OBJECT_ID":"2022-166G","EPOCH":"2026-07-15T04:08:26.240352","CLASSIFICATION_TYPE":"U","MEAN_MOTION":13.2181296,"ECCENTRICITY":0.0001768,"INCLINATION":87.923,"RA_OF_ASC_NODE":238.4123,"ARG_OF_PERICENTER":89.3369,"MEAN_ANOMALY":270.7967,"EPHEMERIS_TYPE":0,"NORAD_CAT_ID":54648,"ELEMENT_SET_NO":999,"REV_AT_EPOCH":17524,"BSTAR":0.0054447,"MEAN_MOTION_DOT":0.00002262,"MEAN_MOTION_DDOT":0},{"OBJECT_NAME":"ONEWEB-0582","OBJECT_ID":"2022-166H","EPOCH":"2026-07-15T03:19:58.730880","CLASSIFICATION_TYPE":"U","MEAN_MOTION":13.21825978,"ECCENTRICITY":0.0001732,"INCLINATION":87.9235,"RA_OF_ASC_NODE":238.4107,"ARG_OF_PERICENTER":92.235,"MEAN_ANOMALY":267.8982,"EPHEMERIS_TYPE":0,"NORAD_CAT_ID":54649,"ELEMENT_SET_NO":999,"REV_AT_EPOCH":17521,"BSTAR":-0.00013544,"MEAN_MOTION_DOT":-4.3e-7,"MEAN_MOTION_DDOT":0},{"OBJECT_NAME":"ONEWEB-0583","OBJECT_ID":"2022-166J","EPOCH":"2026-07-15T03:36:58.454784","CLASSIFICATION_TYPE":"U","MEAN_MOTION":13.21825986,"ECCENTRICITY":0.0001975,"INCLINATION":87.9234,"RA_OF_ASC_NODE":238.4323,"ARG_OF_PERICENTER":94.8976,"MEAN_ANOMALY":265.2383,"EPHEMERIS_TYPE":0,"NORAD_CAT_ID":54650,"ELEMENT_SET_NO":999,"REV_AT_EPOCH":17522,"BSTAR":0.00027689,"MEAN_MOTION_DOT":0.00000127,"MEAN_MOTION_DDOT":0},{"OBJECT_NAME":"ONEWEB-0584","OBJECT_ID":"2022-166K","EPOCH":"2026-07-15T04:06:01.516032","CLASSIFICATION_TYPE":"U","MEAN_MOTION":13.2182439,"ECCENTRICITY":0.0002033,"INCLINATION":87.9228,"RA_OF_ASC_NODE":238.4134,"ARG_OF_PERICENTER":95.6158,"MEAN_ANOMALY":264.5208,"EPHEMERIS_TYPE":0,"NORAD_CAT_ID":54651,"ELEMENT_SET_NO":999,"REV_AT_EPOCH":17521,"BSTAR":-0.000044155,"MEAN_MOTION_DOT":-5e-8,"MEAN_MOTION_DDOT":0},{"OBJECT_NAME":"ONEWEB-0585","OBJECT_ID":"2022-166L","EPOCH":"2026-07-15T02:50:55.116672","CLASSIFICATION_TYPE":"U","MEAN_MOTION":13.21823475,"ECCENTRICITY":0.0002232,"INCLINATION":87.9235,"RA_OF_ASC_NODE":238.4114,"ARG_OF_PERICENTER":98.3886,"MEAN_ANOMALY":261.7501,"EPHEMERIS_TYPE":0,"NORAD_CAT_ID":54652,"ELEMENT_SET_NO":999,"REV_AT_EPOCH":17521,"BSTAR":0.000056102,"MEAN_MOTION_DOT":3.6e-7,"MEAN_MOTION_DDOT":0},{"OBJECT_NAME":"ONEWEB-0586","OBJECT_ID":"2022-166M","EPOCH":"2026-07-15T03:10:18.295680","CLASSIFICATION_TYPE":"U","MEAN_MOTION":13.21823957,"ECCENTRICITY":0.0001884,"INCLINATION":87.9233,"RA_OF_ASC_NODE":238.4337,"ARG_OF_PERICENTER":96.7188,"MEAN_ANOMALY":263.416,"EPHEMERIS_TYPE":0,"NORAD_CAT_ID":54653,"ELEMENT_SET_NO":999,"REV_AT_EPOCH":17521,"BSTAR":0.0001387,"MEAN_MOTION_DOT":7e-7,"MEAN_MOTION_DDOT":0},{"OBJECT_NAME":"ONEWEB-0587","OBJECT_ID":"2022-166N","EPOCH":"2026-07-15T03:24:51.988032","CLASSIFICATION_TYPE":"U","MEAN_MOTION":13.21826095,"ECCENTRICITY":0.0002419,"INCLINATION":87.9245,"RA_OF_ASC_NODE":238.4082,"ARG_OF_PERICENTER":98.7071,"MEAN_ANOMALY":261.4337,"EPHEMERIS_TYPE":0,"NORAD_CAT_ID":54654,"ELEMENT_SET_NO":999,"REV_AT_EPOCH":17537,"BSTAR":0.0001856,"MEAN_MOTION_DOT":9e-7,"MEAN_MOTION_DDOT":0},{"OBJECT_NAME":"ONEWEB-0589","OBJECT_ID":"2022-166P","EPOCH":"2026-07-15T03:05:29.090688","CLASSIFICATION_TYPE":"U","MEAN_MOTION":13.21826324,"ECCENTRICITY":0.0001436,"INCLINATION":87.9234,"RA_OF_ASC_NODE":238.4193,"ARG_OF_PERICENTER":78.504,"MEAN_ANOMALY":281.6255,"EPHEMERIS_TYPE":0,"NORAD_CAT_ID":54655,"ELEMENT_SET_NO":999,"REV_AT_EPOCH":17523,"BSTAR":0.00023975,"MEAN_MOTION_DOT":0.00000112,"MEAN_MOTION_DDOT":0},{"OBJECT_NAME":"ONEWEB-0590","OBJECT_ID":"2022-166Q","EPOCH":"2026-07-15T03:41:35.900736","CLASSIFICATION_TYPE":"U","MEAN_MOTION":13.21825754,"ECCENTRICITY":0.0002272,"INCLINATION":87.9242,"RA_OF_ASC_NODE":238.4076,"ARG_OF_PERICENTER":84.7254,"MEAN_ANOMALY":275.4139,"EPHEMERIS_TYPE":0,"NORAD_CAT_ID":54656,"ELEMENT_SET_NO":999,"REV_AT_EPOCH":17522,"BSTAR":0.000076776,"MEAN_MOTION_DOT":4.5e-7,"MEAN_MOTION_DDOT":0},{"OBJECT_NAME":"ONEWEB-0591","OBJECT_ID":"2022-166R","EPOCH":"2026-07-15T03:58:44.095296","CLASSIFICATION_TYPE":"U","MEAN_MOTION":13.21827161,"ECCENTRICITY":0.0002105,"INCLINATION":87.9232,"RA_OF_ASC_NODE":238.4174,"ARG_OF_PERICENTER":93.6292,"MEAN_ANOMALY":266.5083,"EPHEMERIS_TYPE":0,"NORAD_CAT_ID":54657,"ELEMENT_SET_NO":999,"REV_AT_EPOCH":17525,"BSTAR":-0.00015481,"MEAN_MOTION_DOT":-5.1e-7,"MEAN_MOTION_DDOT":0},{"OBJECT_NAME":"ONEWEB-0592","OBJECT_ID":"2022-166S","EPOCH":"2026-07-15T04:03:35.919936","CLASSIFICATION_TYPE":"U","MEAN_MOTION":13.21823706,"ECCENTRICITY":0.0002029,"INCLINATION":87.9239,"RA_OF_ASC_NODE":238.3977,"ARG_OF_PERICENTER":97.0359,"MEAN_ANOMALY":263.1006,"EPHEMERIS_TYPE":0,"NORAD_CAT_ID":54658,"ELEMENT_SET_NO":999,"REV_AT_EPOCH":17513,"BSTAR":-0.000011174,"MEAN_MOTION_DOT":8e-8,"MEAN_MOTION_DDOT":0},{"OBJECT_NAME":"ONEWEB-0593","OBJECT_ID":"2022-166T","EPOCH":"2026-07-15T02:46:05.711232","CLASSIFICATION_TYPE":"U","MEAN_MOTION":13.21825973,"ECCENTRICITY":0.0001906,"INCLINATION":87.9235,"RA_OF_ASC_NODE":238.4178,"ARG_OF_PERICENTER":98.072,"MEAN_ANOMALY":262.063,"EPHEMERIS_TYPE":0,"NORAD_CAT_ID":54659,"ELEMENT_SET_NO":999,"REV_AT_EPOCH":17523,"BSTAR":0.000039729,"MEAN_MOTION_DOT":2.9e-7,"MEAN_MOTION_DDOT":0},{"OBJECT_NAME":"ONEWEB-0594","OBJECT_ID":"2022-166U","EPOCH":"2026-07-15T03:15:09.379008","CLASSIFICATION_TYPE":"U","MEAN_MOTION":13.21825057,"ECCENTRICITY":0.000225,"INCLINATION":87.9236,"RA_OF_ASC_NODE":238.4298,"ARG_OF_PERICENTER":101.4601,"MEAN_ANOMALY":258.6785,"EPHEMERIS_TYPE":0,"NORAD_CAT_ID":54660,"ELEMENT_SET_NO":999,"REV_AT_EPOCH":17525,"BSTAR":0.00030631,"MEAN_MOTION_DOT":0.0000014,"MEAN_MOTION_DDOT":0},{"OBJECT_NAME":"ONEWEB-0595","OBJECT_ID":"2022-166V","EPOCH":"2026-07-15T04:30:15.795648","CLASSIFICATION_TYPE":"U","MEAN_MOTION":13.21824868,"ECCENTRICITY":0.0002304,"INCLINATION":87.9242,"RA_OF_ASC_NODE":238.4022,"ARG_OF_PERICENTER":97.207,"MEAN_ANOMALY":262.9326,"EPHEMERIS_TYPE":0,"NORAD_CAT_ID":54661,"ELEMENT_SET_NO":999,"REV_AT_EPOCH":17523,"BSTAR":-0.000089883,"MEAN_MOTION_DOT":-2.4e-7,"MEAN_MOTION_DDOT":0},{"OBJECT_NAME":"ONEWEB-0596","OBJECT_ID":"2022-166W","EPOCH":"2026-07-15T03:53:54.312288","CLASSIFICATION_TYPE":"U","MEAN_MOTION":13.21823834,"ECCENTRICITY":0.0002143,"INCLINATION":87.9234,"RA_OF_ASC_NODE":238.417,"ARG_OF_PERICENTER":95.7911,"MEAN_ANOMALY":264.3467,"EPHEMERIS_TYPE":0,"NORAD_CAT_ID":54662,"ELEMENT_SET_NO":999,"REV_AT_EPOCH":17523,"BSTAR":0.00011674,"MEAN_MOTION_DOT":6.1e-7,"MEAN_MOTION_DDOT":0},{"OBJECT_NAME":"ONEWEB-0597","OBJECT_ID":"2022-166X","EPOCH":"2026-07-15T03:27:15.736896","CLASSIFICATION_TYPE":"U","MEAN_MOTION":13.21824023,"ECCENTRICITY":0.0001992,"INCLINATION":87.9233,"RA_OF_ASC_NODE":238.4234,"ARG_OF_PERICENTER":94.8992,"MEAN_ANOMALY":265.237,"EPHEMERIS_TYPE":0,"NORAD_CAT_ID":54663,"ELEMENT_SET_NO":999,"REV_AT_EPOCH":17523,"BSTAR":0.00015047,"MEAN_MOTION_DOT":7.5e-7,"MEAN_MOTION_DDOT":0},{"OBJECT_NAME":"ONEWEB-0600","OBJECT_ID":"2022-166Y","EPOCH":"2026-07-15T03:00:38.466144","CLASSIFICATION_TYPE":"U","MEAN_MOTION":13.21826478,"ECCENTRICITY":0.0001986,"INCLINATION":87.9236,"RA_OF_ASC_NODE":238.418,"ARG_OF_PERICENTER":102.3272,"MEAN_ANOMALY":257.8084,"EPHEMERIS_TYPE":0,"NORAD_CAT_ID":54664,"ELEMENT_SET_NO":999,"REV_AT_EPOCH":17520,"BSTAR":0.00022993,"MEAN_MOTION_DOT":0.00000108,"MEAN_MOTION_DDOT":0},{"OBJECT_NAME":"ONEWEB-0601","OBJECT_ID":"2022-166Z","EPOCH":"2026-07-15T02:48:30.919392","CLASSIFICATION_TYPE":"U","MEAN_MOTION":13.21825511,"ECCENTRICITY":0.0001815,"INCLINATION":87.9234,"RA_OF_ASC_NODE":238.4356,"ARG_OF_PERICENTER":95.1808,"MEAN_ANOMALY":264.9533,"EPHEMERIS_TYPE":0,"NORAD_CAT_ID":54665,"ELEMENT_SET_NO":999,"REV_AT_EPOCH":17539,"BSTAR":0.000079524,"MEAN_MOTION_DOT":4.6e-7,"MEAN_MOTION_DDOT":0}]}
